USA 254                 
1 40100U 14043B   19343.37434432 -.00000036  00000-0  00000+0 0  9996
2 40100   0.1184 101.5240 0002463 185.7399 172.4058  1.00392238  3874
ASIASAT 8               
1 40107U 14046A   19345.33081840 -.00000013  00000-0  00000+0 0  9990
2 40107   0.0250 293.0315 0001847 306.1387 315.8087  1.00271759 19635
ASIASAT 6               
1 40141U 14052A   19344.86021787 -.00000342  00000-0  00000-0 0  9992
2 40141   0.0039  45.5244 0000883 210.5997 252.7727  1.00271023 19198
OPTUS 10                
1 40146U 14054A   19345.45614694 -.00000127  00000-0  00000+0 0  9990
2 40146   0.0350  75.1619 0003707 164.7058 160.2425  1.00270410 19265
MEASAT-3B               
1 40147U 14054B   19345.49424542 -.00000221  00000-0  00000+0 0  9991
2 40147   0.0289  18.3931 0001588 275.5454  55.4172  1.00272025 19313
LUCH (OLYMP)            
1 40258U 14058A   19344.94069992 -.00000023  00000-0  00000-0 0  9992
2 40258   0.0195 337.3900 0001933 305.7549 205.4764  1.00267946 17124
HIMAWARI-8              
1 40267U 14060A   19345.43140161 -.00000255  00000-0  00000+0 0  9994
2 40267   0.0517 159.7276 0001122 105.3237 110.8050  1.00272376 19001
IRNSS-1C                
1 40269U 14061A   19344.88243809 -.00000139  00000-0  00000-0 0  9990
2 40269   1.8653 193.3979 0020322   9.3516 277.3941  1.00269448 18815
INTELSAT 30 (IS-30)     
1 40271U 14062A   19345.18913758 -.00000130  00000-0  00000+0 0  9995
2 40271   0.0183   0.9881 0001756 109.0940 302.5927  1.00270812 18903
ARSAT 1                 
1 40272U 14062B   19345.10191090 -.00000239  00000-0  00000+0 0  9995
2 40272   0.0340 137.1411 0001560 115.7905 151.4900  1.00270988 19029
EXPRESS-AM6             
1 40277U 14064A   19344.71577122  .00000119  00000-0  00000+0 0  9998
2 40277   0.0296 225.0595 0000956  93.9372  70.8467  1.00272354 18803
GSAT-16                 
1 40332U 14078A   19344.84011537  .00000105  00000-0  00000-0 0  9998
2 40332   0.0577 277.6290 0003364 217.6595 301.5025  1.00273952 18269
DIRECTV 14              
1 40333U 14078B   19344.92757696 -.00000104  00000-0  00000-0 0  9991
2 40333   0.0169 351.1005 0000968   0.4831 322.4799  1.00270949 18260
YAMAL 401               
1 40345U 14082A   19345.13418825 -.00000208  00000-0  00000+0 0  9995
2 40345   0.0227   3.9494 0000504 317.6334 256.2303  1.00272072 18544
ASTRA 2G                
1 40364U 14089A   19345.37688115  .00000170  00000-0  00000+0 0  9997
2 40364   0.0250 348.5469 0001001  19.9173 235.2579  1.00271269 18153
FENGYUN 2G              
1 40367U 14090A   19344.69910554 -.00000276  00000-0  00000-0 0  9990
2 40367   1.6380  97.4678 0003046 284.8466  47.5264  1.00259949 18165
MUOS-3                  
1 40374U 15002A   19345.11307711 -.00000108  00000-0  00000+0 0  9998
2 40374   3.0113 342.6127 0055049 183.7791 298.3912  1.00270910 17958
INMARSAT 5-F2           
1 40384U 15005A   19345.46420238 -.00000265  00000-0  00000+0 0  9994
2 40384   0.0174 338.1979 0000206 337.9462 235.8622  1.00272218 17813
ABS-3A                  
1 40424U 15010A   19345.11560696 -.00000006  00000-0  00000+0 0  9993
2 40424   0.0114 116.8205 0001568  31.1475 330.2225  1.00270662 17533
EUTELSAT 115 WEST B     
1 40425U 15010B   19345.53582300 -.00000004  00000-0  00000+0 0  9994
2 40425   0.0393 164.3513 0000463 294.4503  59.1580  1.00270064 17573
EXPRESS-AM7             
1 40505U 15012A   19343.61676541  .00000171  00000-0  00000-0 0  9998
2 40505   0.0024 307.9233 0002597 306.4759  85.7105  1.00271438 17477
IRNSS-1D                
1 40547U 15018A   19344.69954067 -.00000290  00000-0  00000+0 0  9993
2 40547  28.8646 280.4122 0018239 184.0156 338.3376  1.00276378 17378
BEIDOU 17               
1 40549U 15019A   19344.91993641 -.00000179  00000-0  00000-0 0  9999
2 40549  53.3302 323.3831 0036191 194.6746 349.3690  1.00272766 17216
THOR 7                  
1 40613U 15022A   19345.33660414  .00000012  00000-0  00000+0 0  9995
2 40613   0.0128 338.6107 0002933 283.3986 298.2680  1.00271440 16956
TURKMENALEM52E/MONACOSAT
1 40617U 15023A   19344.83950472  .00000124  00000-0  00000-0 0  9995
2 40617   0.0104  10.2371 0002783 251.7304 171.5469  1.00271181 16967
DIRECTV 15              
1 40663U 15026A   19345.17538281 -.00000082  00000-0  00000+0 0  9990
2 40663   0.0349  88.7552 0000393 211.4809  99.6735  1.00270889 16676
SKY MEXICO-1            
1 40664U 15026B   19345.17266076 -.00000214  00000-0  00000+0 0  9998
2 40664   0.0187   3.2542 0002496 266.8899 152.8577  1.00270640 16678
METEOSAT-11 (MSG-4)     
1 40732U 15034A   19345.33151628  .00000017  00000-0  00000+0 0  9997
2 40732   0.6885 242.7921 0000151   0.1990 315.8202  1.00273252 16176
STAR ONE C4             
1 40733U 15034B   19344.88696117 -.00000244  00000-0  00000-0 0  9998
2 40733   0.0645  78.0782 0001866 211.7620  38.7998  1.00271570 16167
WGS F7 (USA 263)        
1 40746U 15036A   19345.07940399  .00000039  00000-0  00000+0 0  9990
2 40746   0.0032  45.3955 0000405 175.0337  62.7023  1.00271796 16004
INTELSAT 34 (IS-34)     
1 40874U 15039A   19345.46411515 -.00000265  00000-0  00000+0 0  9993
2 40874   0.0170 345.6822 0000558 223.7081 342.0965  1.00270371 15808
EUTELSAT 8 WEST B       
1 40875U 15039B   19345.11464736 -.00000045  00000-0  00000+0 0  9995
2 40875   0.0722  30.9189 0002388 207.8263 234.0738  1.00271724 15823
GSAT-6                  
1 40880U 15041A   19345.41979921 -.00000136  00000-0  00000+0 0  9995
2 40880   0.0111  58.1541 0008362 206.3438  48.6126  1.00271859 15763
INMARSAT 5-F3           
1 40882U 15042A   19345.47386535  .00000070  00000-0  00000+0 0  9993
2 40882   0.0176 332.9845 0000167 216.7090 240.3900  1.00270043 15697
MUOS-4                  
1 40887U 15044A   19345.13113499 -.00000073  00000-0  00000+0 0  9994
2 40887   3.1716 339.6803 0055453 356.6280 225.5023  1.00271978 15696
TJS-1                   
1 40892U 15046A   19344.94215896 -.00000135  00000-0  10000-3 0  9998
2 40892   0.0995  83.1283 0006951 285.6265 204.8657  1.00272535 15685
EXPRESS-AM8             
1 40895U 15048A   19343.60594813 -.00000091  00000-0  00000+0 0  9990
2 40895   0.0122 218.6144 0000444  42.2662  21.3245  1.00271436 15493
BEIDOU 20               
1 40938U 15053A   19344.80759626 -.00000157  00000-0  00000-0 0  9996
2 40938  52.9053 286.3868 0048183 184.4454 355.5131  1.00270355 15490
SKY MUSTER (NBN1A)      
1 40940U 15054A   19344.85703920 -.00000258  00000-0  00000-0 0  9993
2 40940   0.0156 319.5484 0002052 298.5371 270.0081  1.00271113 15403
ARSAT 2                 
1 40941U 15054B   19345.16050655 -.00000204  00000-0  00000+0 0  9999
2 40941   0.0487 137.1787 0001805 118.3397 160.8663  1.00271246 15457
MORELOS 3               
1 40946U 15056A   19345.51028419 -.00000024  00000-0  00000+0 0  9998
2 40946   5.1179 328.1990 0001756 346.8674 195.4803  1.00269532 15416
APSTAR 9                
1 40982U 15059A   19345.43166333 -.00000245  00000-0  00000+0 0  9995
2 40982   0.0141 287.1595 0001075 298.1033 152.0073  1.00273714 15297
TURKSAT 4B              
1 40984U 15060A   19345.41325652  .00000135  00000-0  00000+0 0  9995
2 40984   0.0148 334.3337 0002266 283.2651  20.9988  1.00275569 15253
CHINASAT 2C (ZX 2C)     
1 41021U 15063A   19344.98648069 -.00000304  00000-0  00000-0 0  9992
2 41021   0.0140 256.1327 0004082  87.5822 194.3031  1.00271479 15140
GSAT-15                 
1 41028U 15065A   19345.13488615 -.00000237  00000-0  00000+0 0  9992
2 41028   0.0143 341.0793 0003063 249.9058 350.6335  1.00268957 14997
BADR-7 (ARABSAT-6B)     
1 41029U 15065B   19345.38243809  .00000165  00000-0  00000+0 0  9993
2 41029   0.0611 269.0455 0005380 338.4044 356.0705  1.00273278 15045
LAOSAT 1                
1 41034U 15067A   19345.42904625 -.00000322  00000-0  00000+0 0  9992
2 41034   0.0233 244.0465 0002177 356.1683 122.5885  1.00274922 14986
TELSTAR 12V             
1 41036U 15068A   19343.60577366 -.00000098  00000-0  00000+0 0  9991
2 41036   0.0053  21.6649 0002219 242.1467  17.3441  1.00272424 14841
CHINASAT 1C (ZX 1C)     
1 41103U 15073A   19345.16577336 -.00000131  00000-0  00000+0 0  9990
2 41103   1.1731  94.2480 0002654 171.2733 315.2882  1.00271012 14808
ELEKTRO-L 2             
1 41105U 15074A   19344.91609802 -.00000078  00000-0  00000-0 0  9990
2 41105   0.7521 100.7774 0000613 141.7464 242.7276  1.00272375 14654
COSMOS 2513             
1 41121U 15075A   19344.95570942 -.00000118  00000-0  10000-3 0  9994
2 41121   0.0664 111.8389 0003365 158.5448 233.3274  1.00271528 14735
EXPRESS-AMU1            
1 41191U 15082A   19345.37132674  .00000176  00000-0  00000+0 0  9990
2 41191   0.0163 299.9693 0002327 320.2720 349.3588  1.00271507 14643
GAOFEN 4                
1 41194U 15083A   19344.98459753 -.00000314  00000-0  00000-0 0  9996
2 41194   0.0177 278.3659 0004706 304.0144 317.2443  1.00271376 14623
BELINTERSAT-1           
1 41238U 16001A   19345.41369270  .00000127  00000-0  00000+0 0  9999
2 41238   0.0333 288.8740 0001872 256.9759  94.4083  1.00270645 14386
IRNSS-1E                
1 41241U 16003A   19344.74077306 -.00000279  00000-0  00000-0 0  9996
2 41241  28.8261  99.3616 0021790 180.5880 177.6802  1.00270960 14207
EUTELSAT 9B             
1 41310U 16005A   19345.33104979  .00000082  00000-0  00000+0 0  9998
2 41310   0.0802  82.2265 0005751 195.6182 290.0919  1.00271866 14248
SES-9                   
1 41380U 16013A   19344.91763017 -.00000325  00000-0  00000-0 0  9993
2 41380   0.0251 288.0821 0000220 290.8782 299.0607  1.00270984 13586
EUTELSAT 65 WEST A      
1 41382U 16014A   19345.13154153 -.00000256  00000-0  00000+0 0  9998
2 41382   0.0479 358.6569 0002040 257.1223 165.9427  1.00269485 13788
IRNSS-1F                
1 41384U 16015A   19345.12276032  .00000184  00000-0  00000+0 0  9990
2 41384   2.4286 230.7121 0017775 180.4835 105.0287  1.00270869 13826
